{
  "norad_id": 58515,
  "name": "STARLINK-31017",
  "history": [
    {
      "epoch": "2026-03-28T21:03:47.212992Z",
      "apogee_km": 483.5830260165985,
      "perigee_km": 482.6902370916605,
      "latitude_deg": -8.947110975244984e-06,
      "longitude_deg": -19.441197642424502,
      "height_km": 482.98764965314916,
      "semi_major_axis_km": 6861.273631554129,
      "eccentricity": 6.506e-05,
      "inclination_deg": 43.0019,
      "raan_deg": 122.7973,
      "arg_perigee_deg": 260.3565,
      "mean_anomaly_deg": 99.7213,
      "mean_motion_rev_day": 15.27550767
    },
    {
      "epoch": "2026-03-29T03:20:25.068192Z",
      "apogee_km": 483.7709609603253,
      "perigee_km": 482.50162540108704,
      "latitude_deg": -1.4972089530068414e-05,
      "longitude_deg": -115.33302874757412,
      "height_km": 482.9779138380382,
      "semi_major_axis_km": 6861.273293180706,
      "eccentricity": 9.25e-05,
      "inclination_deg": 43.0039,
      "raan_deg": 121.321,
      "arg_perigee_deg": 264.1306,
      "mean_anomaly_deg": 95.944,
      "mean_motion_rev_day": 15.2755088
    },
    {
      "epoch": "2026-03-30T01:18:33.851808Z",
      "apogee_km": 483.94091493861833,
      "perigee_km": 482.141365136049,
      "latitude_deg": 3.461943597833373e-05,
      "longitude_deg": -90.94131291635816,
      "height_km": 482.84844412029224,
      "semi_major_axis_km": 6861.178140037334,
      "eccentricity": 0.00013114,
      "inclination_deg": 43.0053,
      "raan_deg": 116.1515,
      "arg_perigee_deg": 268.0833,
      "mean_anomaly_deg": 91.9869,
      "mean_motion_rev_day": 15.27582657
    },
    {
      "epoch": "2026-03-30T07:35:11.283648Z",
      "apogee_km": 483.93128812376926,
      "perigee_km": 482.1416196400578,
      "latitude_deg": -2.202244883290254e-05,
      "longitude_deg": 173.1678711169426,
      "height_km": 482.84391697580065,
      "semi_major_axis_km": 6861.173453881913,
      "eccentricity": 0.00013042,
      "inclination_deg": 43.0052,
      "raan_deg": 114.6745,
      "arg_perigee_deg": 268.0618,
      "mean_anomaly_deg": 92.0084,
      "mean_motion_rev_day": 15.27584222
    }
  ]
}